[{"OBJECT_NAME":"GPS BIIR-2  (PRN 13)","OBJECT_ID":"1997-035A","EPOCH":"2026-03-05T23:53:42.738720","MEAN_MOTION":2.00563997,"ECCENTRICITY":0.00979863,"INCLINATION":55.9363,"RA_OF_ASC_NODE":102.6088,"ARG_OF_PERICENTER":56.2572,"MEAN_ANOMALY":304.7464,"EPHEMERIS_TYPE":0,"CLASSIFICATION_TYPE":"U","NORAD_CAT_ID":24876,"ELEMENT_SET_NO":999,"REV_AT_EPOCH":20988,"BSTAR":0,"MEAN_MOTION_DOT":5.0e-8,"MEAN_MOTION_DDOT":0},{"OBJECT_NAME":"GPS BIIR-5  (PRN 22)","OBJECT_ID":"2000-040A","EPOCH":"2026-03-06T02:07:20.751168","MEAN_MOTION":2.00568974,"ECCENTRICITY":0.0122662,"INCLINATION":54.8752,"RA_OF_ASC_NODE":219.2548,"ARG_OF_PERICENTER":302.5343,"MEAN_ANOMALY":58.6773,"EPHEMERIS_TYPE":0,"CLASSIFICATION_TYPE":"U","NORAD_CAT_ID":26407,"ELEMENT_SET_NO":999,"REV_AT_EPOCH":18788,"BSTAR":0,"MEAN_MOTION_DOT":1.7e-7,"MEAN_MOTION_DDOT":0},{"OBJECT_NAME":"GPS BIIR-8  (PRN 16)","OBJECT_ID":"2003-005A","EPOCH":"2026-03-05T09:57:48.106368","MEAN_MOTION":2.00566237,"ECCENTRICITY":0.0148737,"INCLINATION":54.9071,"RA_OF_ASC_NODE":219.0894,"ARG_OF_PERICENTER":52.7243,"MEAN_ANOMALY":318.2187,"EPHEMERIS_TYPE":0,"CLASSIFICATION_TYPE":"U","NORAD_CAT_ID":27663,"ELEMENT_SET_NO":999,"REV_AT_EPOCH":16923,"BSTAR":0,"MEAN_MOTION_DOT":9.0e-8,"MEAN_MOTION_DDOT":0},{"OBJECT_NAME":"GPS BIIR-11 (PRN 19)","OBJECT_ID":"2004-009A","EPOCH":"2026-03-05T22:23:44.700000","MEAN_MOTION":2.00558087,"ECCENTRICITY":0.01110255,"INCLINATION":54.9146,"RA_OF_ASC_NODE":279.8578,"ARG_OF_PERICENTER":169.1048,"MEAN_ANOMALY":11.7386,"EPHEMERIS_TYPE":0,"CLASSIFICATION_TYPE":"U","NORAD_CAT_ID":28190,"ELEMENT_SET_NO":999,"REV_AT_EPOCH":16087,"BSTAR":0,"MEAN_MOTION_DOT":-2.3e-7,"MEAN_MOTION_DDOT":0},{"OBJECT_NAME":"GPS BIIR-13 (PRN 02)","OBJECT_ID":"2004-045A","EPOCH":"2026-03-06T02:30:39.424608","MEAN_MOTION":2.00573534,"ECCENTRICITY":0.0170825,"INCLINATION":55.1937,"RA_OF_ASC_NODE":329.0507,"ARG_OF_PERICENTER":312.8962,"MEAN_ANOMALY":55.2493,"EPHEMERIS_TYPE":0,"CLASSIFICATION_TYPE":"U","NORAD_CAT_ID":28474,"ELEMENT_SET_NO":999,"REV_AT_EPOCH":15636,"BSTAR":0,"MEAN_MOTION_DOT":-9.5e-7,"MEAN_MOTION_DDOT":0},{"OBJECT_NAME":"GPS BIIRM-1 (PRN 17)","OBJECT_ID":"2005-038A","EPOCH":"2026-03-05T15:49:50.067264","MEAN_MOTION":2.00572953,"ECCENTRICITY":0.0128771,"INCLINATION":54.962,"RA_OF_ASC_NODE":277.3543,"ARG_OF_PERICENTER":295.3628,"MEAN_ANOMALY":71.8248,"EPHEMERIS_TYPE":0,"CLASSIFICATION_TYPE":"U","NORAD_CAT_ID":28874,"ELEMENT_SET_NO":999,"REV_AT_EPOCH":14976,"BSTAR":0,"MEAN_MOTION_DOT":-2.0e-7,"MEAN_MOTION_DDOT":0},{"OBJECT_NAME":"GPS BIIRM-2 (PRN 31)","OBJECT_ID":"2006-042A","EPOCH":"2026-03-06T07:21:29.789856","MEAN_MOTION":2.00575309,"ECCENTRICITY":0.0106709,"INCLINATION":54.6979,"RA_OF_ASC_NODE":155.4247,"ARG_OF_PERICENTER":52.9095,"MEAN_ANOMALY":318.4746,"EPHEMERIS_TYPE":0,"CLASSIFICATION_TYPE":"U","NORAD_CAT_ID":29486,"ELEMENT_SET_NO":999,"REV_AT_EPOCH":14233,"BSTAR":0,"MEAN_MOTION_DOT":9.0e-8,"MEAN_MOTION_DDOT":0},{"OBJECT_NAME":"GPS BIIRM-3 (PRN 12)","OBJECT_ID":"2006-052A","EPOCH":"2026-03-05T17:01:51.031488","MEAN_MOTION":2.00551752,"ECCENTRICITY":0.00878481,"INCLINATION":54.9567,"RA_OF_ASC_NODE":218.1055,"ARG_OF_PERICENTER":89.3817,"MEAN_ANOMALY":271.5768,"EPHEMERIS_TYPE":0,"CLASSIFICATION_TYPE":"U","NORAD_CAT_ID":29601,"ELEMENT_SET_NO":999,"REV_AT_EPOCH":14133,"BSTAR":0,"MEAN_MOTION_DOT":1.3e-7,"MEAN_MOTION_DDOT":0},{"OBJECT_NAME":"GPS BIIRM-4 (PRN 15)","OBJECT_ID":"2007-047A","EPOCH":"2026-03-06T00:23:33.368352","MEAN_MOTION":2.00560687,"ECCENTRICITY":0.01636139,"INCLINATION":54.017,"RA_OF_ASC_NODE":84.3168,"ARG_OF_PERICENTER":85.9747,"MEAN_ANOMALY":275.9459,"EPHEMERIS_TYPE":0,"CLASSIFICATION_TYPE":"U","NORAD_CAT_ID":32260,"ELEMENT_SET_NO":999,"REV_AT_EPOCH":13474,"BSTAR":0,"MEAN_MOTION_DOT":-1.5e-7,"MEAN_MOTION_DDOT":0},{"OBJECT_NAME":"GPS BIIRM-5 (PRN 29)","OBJECT_ID":"2007-062A","EPOCH":"2026-03-06T01:54:28.774080","MEAN_MOTION":2.00553677,"ECCENTRICITY":0.00329705,"INCLINATION":55.1135,"RA_OF_ASC_NODE":278.2961,"ARG_OF_PERICENTER":160.6738,"MEAN_ANOMALY":12.9295,"EPHEMERIS_TYPE":0,"CLASSIFICATION_TYPE":"U","NORAD_CAT_ID":32384,"ELEMENT_SET_NO":999,"REV_AT_EPOCH":13344,"BSTAR":0,"MEAN_MOTION_DOT":-2.0e-7,"MEAN_MOTION_DDOT":0},{"OBJECT_NAME":"GPS BIIRM-6 (PRN 07)","OBJECT_ID":"2008-012A","EPOCH":"2026-03-05T10:27:51.179328","MEAN_MOTION":2.00569259,"ECCENTRICITY":0.02070381,"INCLINATION":54.4824,"RA_OF_ASC_NODE":154.071,"ARG_OF_PERICENTER":246.204,"MEAN_ANOMALY":111.6495,"EPHEMERIS_TYPE":0,"CLASSIFICATION_TYPE":"U","NORAD_CAT_ID":32711,"ELEMENT_SET_NO":999,"REV_AT_EPOCH":13167,"BSTAR":0,"MEAN_MOTION_DOT":9.0e-8,"MEAN_MOTION_DDOT":0},{"OBJECT_NAME":"GPS BIIRM-8 (PRN 05)","OBJECT_ID":"2009-043A","EPOCH":"2026-03-06T03:39:20.308032","MEAN_MOTION":2.00560376,"ECCENTRICITY":0.00517349,"INCLINATION":56.1494,"RA_OF_ASC_NODE":31.4989,"ARG_OF_PERICENTER":80.7052,"MEAN_ANOMALY":92.3739,"EPHEMERIS_TYPE":0,"CLASSIFICATION_TYPE":"U","NORAD_CAT_ID":35752,"ELEMENT_SET_NO":999,"REV_AT_EPOCH":12129,"BSTAR":0,"MEAN_MOTION_DOT":-8.4e-7,"MEAN_MOTION_DDOT":0},{"OBJECT_NAME":"GPS BIIF-1  (PRN 25)","OBJECT_ID":"2010-022A","EPOCH":"2026-03-05T18:06:10.553184","MEAN_MOTION":2.00557356,"ECCENTRICITY":0.01273386,"INCLINATION":54.2886,"RA_OF_ASC_NODE":212.7266,"ARG_OF_PERICENTER":65.886,"MEAN_ANOMALY":296.5732,"EPHEMERIS_TYPE":0,"CLASSIFICATION_TYPE":"U","NORAD_CAT_ID":36585,"ELEMENT_SET_NO":999,"REV_AT_EPOCH":11552,"BSTAR":0,"MEAN_MOTION_DOT":1.2e-7,"MEAN_MOTION_DDOT":0},{"OBJECT_NAME":"GPS BIIF-3  (PRN 24)","OBJECT_ID":"2012-053A","EPOCH":"2026-03-05T02:46:21.230400","MEAN_MOTION":2.00565848,"ECCENTRICITY":0.0176939,"INCLINATION":53.5659,"RA_OF_ASC_NODE":147.8643,"ARG_OF_PERICENTER":64.7787,"MEAN_ANOMALY":297.0919,"EPHEMERIS_TYPE":0,"CLASSIFICATION_TYPE":"U","NORAD_CAT_ID":38833,"ELEMENT_SET_NO":999,"REV_AT_EPOCH":9735,"BSTAR":0,"MEAN_MOTION_DOT":9.0e-8,"MEAN_MOTION_DDOT":0},{"OBJECT_NAME":"GPS BIIF-4  (PRN 27)","OBJECT_ID":"2013-023A","EPOCH":"2026-03-04T23:31:44.502816","MEAN_MOTION":2.00564217,"ECCENTRICITY":0.01416203,"INCLINATION":54.5857,"RA_OF_ASC_NODE":273.2171,"ARG_OF_PERICENTER":49.9246,"MEAN_ANOMALY":311.3385,"EPHEMERIS_TYPE":0,"CLASSIFICATION_TYPE":"U","NORAD_CAT_ID":39166,"ELEMENT_SET_NO":999,"REV_AT_EPOCH":9379,"BSTAR":0,"MEAN_MOTION_DOT":-1.6e-7,"MEAN_MOTION_DDOT":0},{"OBJECT_NAME":"GPS BIIF-5  (PRN 30)","OBJECT_ID":"2014-008A","EPOCH":"2026-03-05T11:27:37.396224","MEAN_MOTION":2.00553167,"ECCENTRICITY":0.00823373,"INCLINATION":53.6378,"RA_OF_ASC_NODE":153.5513,"ARG_OF_PERICENTER":228.3363,"MEAN_ANOMALY":130.9939,"EPHEMERIS_TYPE":0,"CLASSIFICATION_TYPE":"U","NORAD_CAT_ID":39533,"ELEMENT_SET_NO":999,"REV_AT_EPOCH":8760,"BSTAR":0,"MEAN_MOTION_DOT":8.0e-8,"MEAN_MOTION_DDOT":0},{"OBJECT_NAME":"GPS BIIF-6  (PRN 06)","OBJECT_ID":"2014-026A","EPOCH":"2026-03-05T18:07:59.431872","MEAN_MOTION":2.00568639,"ECCENTRICITY":0.00398497,"INCLINATION":56.5458,"RA_OF_ASC_NODE":335.547,"ARG_OF_PERICENTER":324.6009,"MEAN_ANOMALY":35.1717,"EPHEMERIS_TYPE":0,"CLASSIFICATION_TYPE":"U","NORAD_CAT_ID":39741,"ELEMENT_SET_NO":999,"REV_AT_EPOCH":8646,"BSTAR":0,"MEAN_MOTION_DOT":-9.9e-7,"MEAN_MOTION_DDOT":0}]
