GPS BIIR-2  (PRN 13)    
1 24876U 97035A   26064.99563355  .00000005  00000+0  00000+0 0  9997
2 24876  55.9363 102.6088 0097986  56.2572 304.7464  2.00563997209887
GPS BIIR-5  (PRN 22)    
1 26407U 00040A   26065.08843462  .00000017  00000+0  00000+0 0  9993
2 26407  54.8752 219.2548 0122662 302.5343  58.6773  2.00568974187881
GPS BIIR-8  (PRN 16)    
1 27663U 03005A   26064.41514012  .00000009  00000+0  00000+0 0  9995
2 27663  54.9071 219.0894 0148737  52.7243 318.2187  2.00566237169230
GPS BIIR-11 (PRN 19)    
1 28190U 04009A   26064.93315625 -.00000023  00000+0  00000+0 0  9999
2 28190  54.9146 279.8578 0111025 169.1048  11.7386  2.00558087160879
GPS BIIR-13 (PRN 02)    
1 28474U 04045A   26065.10462297 -.00000095  00000+0  00000+0 0  9991
2 28474  55.1937 329.0507 0170825 312.8962  55.2493  2.00573534156365
GPS BIIRM-1 (PRN 17)    
1 28874U 05038A   26064.65960726 -.00000020  00000+0  00000+0 0  9995
2 28874  54.9620 277.3543 0128771 295.3628  71.8248  2.00572953149769
GPS BIIRM-2 (PRN 31)    
1 29486U 06042A   26065.30659479  .00000009  00000+0  00000+0 0  9990
2 29486  54.6979 155.4247 0106709  52.9095 318.4746  2.00575309142339
GPS BIIRM-3 (PRN 12)    
1 29601U 06052A   26064.70961842  .00000013  00000+0  00000+0 0  9998
2 29601  54.9567 218.1055 0087848  89.3817 271.5768  2.00551752141334
GPS BIIRM-4 (PRN 15)    
1 32260U 07047A   26065.01635843 -.00000015  00000+0  00000+0 0  9995
2 32260  54.0170  84.3168 0163613  85.9747 275.9459  2.00560687134746
GPS BIIRM-5 (PRN 29)    
1 32384U 07062A   26065.07949970 -.00000020  00000+0  00000+0 0  9990
2 32384  55.1135 278.2961 0032970 160.6738  12.9295  2.00553677133447
GPS BIIRM-6 (PRN 07)    
1 32711U 08012A   26064.43600902  .00000009  00000+0  00000+0 0  9994
2 32711  54.4824 154.0710 0207038 246.2040 111.6495  2.00569259131672
GPS BIIRM-8 (PRN 05)    
1 35752U 09043A   26065.15231838 -.00000084  00000+0  00000+0 0  9999
2 35752  56.1494  31.4989 0051734  80.7052  92.3739  2.00560376121296
GPS BIIF-1  (PRN 25)    
1 36585U 10022A   26064.75428881  .00000012  00000+0  00000+0 0  9994
2 36585  54.2886 212.7266 0127338  65.8860 296.5732  2.00557356115526
GPS BIIF-3  (PRN 24)    
1 38833U 12053A   26064.11552350  .00000009  00000+0  00000+0 0  9993
2 38833  53.5659 147.8643 0176939  64.7787 297.0919  2.00565848 97356
GPS BIIF-4  (PRN 27)    
1 39166U 13023A   26063.98037619 -.00000016  00000+0  00000+0 0  9990
2 39166  54.5857 273.2171 0141620  49.9246 311.3385  2.00564217 93791
GPS BIIF-5  (PRN 30)    
1 39533U 14008A   26064.47751616  .00000008  00000+0  00000+0 0  9997
2 39533  53.6378 153.5513 0082337 228.3363 130.9939  2.00553167 87604
GPS BIIF-6  (PRN 06)    
1 39741U 14026A   26064.75554898 -.00000099  00000+0  00000+0 0  9993
2 39741  56.5458 335.5470 0039849 324.6009  35.1717  2.00568639 86460
